{"type": "FeatureCollection", "features": [ {"type": "Feature", "properties": {"norad_id": 39122, "name": "EUTELSAT 117 WEST A", "group": "eutelsat", "lat": -0.04171030356779391, "lon": -134.32353537631124, "alt_km": 35779.02087387064, "timestamp": "2025-12-21T16:47:54.400300+00:00", "meta": {"OBJECT_NAME": "EUTELSAT 117 WEST A", "OBJECT_ID": "2013-012A", "EPOCH": "2025-12-21T10:55:49.902816", "MEAN_MOTION": 1.00270479, "ECCENTRICITY": 0.0002602, "INCLINATION": 0.0281, "RA_OF_ASC_NODE": 305.356, "ARG_OF_PERICENTER": 328.0329, "MEAN_ANOMALY": 224.0594, "EPHEMERIS_TYPE": 0, "CLASSIFICATION_TYPE": "U", "NORAD_CAT_ID": 39122, "ELEMENT_SET_NO": 999, "REV_AT_EPOCH": 4665, "BSTAR": 0, "MEAN_MOTION_DOT": 1e-07, "MEAN_MOTION_DDOT": 0}, "tle": {"line1": "1 39122U 13012A   25355.45543869  .00000010  00000+0  00000+0 0  9997", "line2": "2 39122   0.0281 305.3560 0002602 328.0329 224.0594  1.00270479 46656"}}, "geometry": {"type": "Point", "coordinates": [-134.32353537631124, -0.04171030356779391]}}, {"type": "Feature", "properties": {"norad_id": 39163, "name": "EUTELSAT 7B", "group": "eutelsat", "lat": -0.01903494894144883, "lon": -10.498204837452429, "alt_km": 35769.90416944075, "timestamp": "2025-12-21T16:47:54.400313+00:00", "meta": {"OBJECT_NAME": "EUTELSAT 7B", "OBJECT_ID": "2013-022A", "EPOCH": "2025-12-21T08:05:43.696320", "MEAN_MOTION": 1.00270971, "ECCENTRICITY": 0.0004388, "INCLINATION": 0.0651, "RA_OF_ASC_NODE": 1.3717, "ARG_OF_PERICENTER": 320.8565, "MEAN_ANOMALY": 256.3575, "EPHEMERIS_TYPE": 0, "CLASSIFICATION_TYPE": "U", "NORAD_CAT_ID": 39163, "ELEMENT_SET_NO": 999, "REV_AT_EPOCH": 4616, "BSTAR": 0, "MEAN_MOTION_DOT": 7.1e-07, "MEAN_MOTION_DDOT": 0}, "tle": {"line1": "1 39163U 13022A   25355.33731130  .00000071  00000+0  00000+0 0  9997", "line2": "2 39163   0.0651   1.3717 0004388 320.8565 256.3575  1.00270971 46164"}}, "geometry": {"type": "Point", "coordinates": [-10.498204837452429, -0.01903494894144883]}}, {"type": "Feature", "properties": {"norad_id": 39612, "name": "EXPRESS-AT1", "group": "eutelsat", "lat": 0.03199178397211506, "lon": 38.47596406731248, "alt_km": 35786.6975098304, "timestamp": "2025-12-21T16:47:54.400325+00:00", "meta": {"OBJECT_NAME": "EXPRESS-AT1", "OBJECT_ID": "2014-010A", "EPOCH": "2025-12-21T11:45:11.053728", "MEAN_MOTION": 1.00272675, "ECCENTRICITY": 8.47e-05, "INCLINATION": 0.0192, "RA_OF_ASC_NODE": 307.9841, "ARG_OF_PERICENTER": 195.1584, "MEAN_ANOMALY": 179.4626, "EPHEMERIS_TYPE": 0, "CLASSIFICATION_TYPE": "U", "NORAD_CAT_ID": 39612, "ELEMENT_SET_NO": 999, "REV_AT_EPOCH": 4303, "BSTAR": 0, "MEAN_MOTION_DOT": 1.01e-06, "MEAN_MOTION_DDOT": 0}, "tle": {"line1": "1 39612U 14010A   25355.48971127  .00000101  00000+0  00000+0 0  9996", "line2": "2 39612   0.0192 307.9841 0000847 195.1584 179.4626  1.00272675 43034"}}, "geometry": {"type": "Point", "coordinates": [38.47596406731248, 0.03199178397211506]}}, {"type": "Feature", "properties": {"norad_id": 39613, "name": "EXPRESS-AT2", "group": "eutelsat", "lat": 0.025297350628342256, "lon": 122.3352883654582, "alt_km": 35790.818412832436, "timestamp": "2025-12-21T16:47:54.400337+00:00", "meta": {"OBJECT_NAME": "EXPRESS-AT2", "OBJECT_ID": "2014-010B", "EPOCH": "2025-12-21T03:35:19.372992", "MEAN_MOTION": 1.00270951, "ECCENTRICITY": 0.00010602, "INCLINATION": 0.019, "RA_OF_ASC_NODE": 327.4725, "ARG_OF_PERICENTER": 327.2965, "MEAN_ANOMALY": 348.8895, "EPHEMERIS_TYPE": 0, "CLASSIFICATION_TYPE": "U", "NORAD_CAT_ID": 39613, "ELEMENT_SET_NO": 999, "REV_AT_EPOCH": 4271, "BSTAR": 0, "MEAN_MOTION_DOT": -2.58e-06, "MEAN_MOTION_DDOT": 0}, "tle": {"line1": "1 39613U 14010B   25355.14952978 -.00000258  00000+0  00000+0 0  9997", "line2": "2 39613   0.0190 327.4725 0001060 327.2965 348.8895  1.00270951 42719"}}, "geometry": {"type": "Point", "coordinates": [122.3352883654582, 0.025297350628342256]}}, {"type": "Feature", "properties": {"norad_id": 39773, "name": "EUTELSAT 3B", "group": "eutelsat", "lat": -0.0322949216983968, "lon": -14.373823409386885, "alt_km": 35792.318585726374, "timestamp": "2025-12-21T16:47:54.400349+00:00", "meta": {"OBJECT_NAME": "EUTELSAT 3B", "OBJECT_ID": "2014-030A", "EPOCH": "2025-12-21T09:47:03.990048", "MEAN_MOTION": 1.00272683, "ECCENTRICITY": 0.0004144, "INCLINATION": 0.0611, "RA_OF_ASC_NODE": 8.8637, "ARG_OF_PERICENTER": 224.6378, "MEAN_ANOMALY": 6.5896, "EPHEMERIS_TYPE": 0, "CLASSIFICATION_TYPE": "U", "NORAD_CAT_ID": 39773, "ELEMENT_SET_NO": 999, "REV_AT_EPOCH": 4228, "BSTAR": 0, "MEAN_MOTION_DOT": 4.3e-07, "MEAN_MOTION_DDOT": 0}, "tle": {"line1": "1 39773U 14030A   25355.40768507  .00000043  00000+0  00000+0 0  9999", "line2": "2 39773   0.0611   8.8637 0004144 224.6378   6.5896  1.00272683 42285"}}, "geometry": {"type": "Point", "coordinates": [-14.373823409386885, -0.0322949216983968]}}, {"type": "Feature", "properties": {"norad_id": 40425, "name": "EUTELSAT 115 WEST B", "group": "eutelsat", "lat": 0.004843906558968993, "lon": -132.4265564124529, "alt_km": 35787.09420553737, "timestamp": "2025-12-21T16:47:54.400361+00:00", "meta": {"OBJECT_NAME": "EUTELSAT 115 WEST B", "OBJECT_ID": "2015-010B", "EPOCH": "2025-12-21T04:29:33.223776", "MEAN_MOTION": 1.00269059, "ECCENTRICITY": 3.333e-05, "INCLINATION": 0.0159, "RA_OF_ASC_NODE": 149.3637, "ARG_OF_PERICENTER": 179.3265, "MEAN_ANOMALY": 73.8064, "EPHEMERIS_TYPE": 0, "CLASSIFICATION_TYPE": "U", "NORAD_CAT_ID": 40425, "ELEMENT_SET_NO": 999, "REV_AT_EPOCH": 3960, "BSTAR": 0, "MEAN_MOTION_DOT": -2e-08, "MEAN_MOTION_DDOT": 0}, "tle": {"line1": "1 40425U 15010B   25355.18719009 -.00000002  00000+0  00000+0 0  9998", "line2": "2 40425   0.0159 149.3637 0000333 179.3265  73.8064  1.00269059 39605"}}, "geometry": {"type": "Point", "coordinates": [-132.4265564124529, 0.004843906558968993]}}, {"type": "Feature", "properties": {"norad_id": 40875, "name": "EUTELSAT 8 WEST B", "group": "eutelsat", "lat": -0.03979034689146349, "lon": -25.46962626063533, "alt_km": 35778.14892471736, "timestamp": "2025-12-21T16:47:54.400372+00:00", "meta": {"OBJECT_NAME": "EUTELSAT 8 WEST B", "OBJECT_ID": "2015-039B", "EPOCH": "2025-12-21T09:44:11.763744", "MEAN_MOTION": 1.00271103, "ECCENTRICITY": 0.0004264, "INCLINATION": 0.0633, "RA_OF_ASC_NODE": 0.4404, "ARG_OF_PERICENTER": 270.7946, "MEAN_ANOMALY": 317.0427, "EPHEMERIS_TYPE": 0, "CLASSIFICATION_TYPE": "U", "NORAD_CAT_ID": 40875, "ELEMENT_SET_NO": 999, "REV_AT_EPOCH": 3787, "BSTAR": 0, "MEAN_MOTION_DOT": -4.3e-07, "MEAN_MOTION_DDOT": 0}, "tle": {"line1": "1 40875U 15039B   25355.40569171 -.00000043  00000+0  00000+0 0  9991", "line2": "2 40875   0.0633   0.4404 0004264 270.7946 317.0427  1.00271103 37875"}}, "geometry": {"type": "Point", "coordinates": [-25.46962626063533, -0.03979034689146349]}}, {"type": "Feature", "properties": {"norad_id": 41310, "name": "EUTELSAT 9B", "group": "eutelsat", "lat": -0.06637495316819059, "lon": -8.4666266629057, "alt_km": 35781.09375488278, "timestamp": "2025-12-21T16:47:54.400384+00:00", "meta": {"OBJECT_NAME": "EUTELSAT 9B", "OBJECT_ID": "2016-005A", "EPOCH": "2025-12-21T08:06:13.646880", "MEAN_MOTION": 1.00272858, "ECCENTRICITY": 0.0004483, "INCLINATION": 0.0641, "RA_OF_ASC_NODE": 72.0641, "ARG_OF_PERICENTER": 203.714, "MEAN_ANOMALY": 304.9349, "EPHEMERIS_TYPE": 0, "CLASSIFICATION_TYPE": "U", "NORAD_CAT_ID": 41310, "ELEMENT_SET_NO": 999, "REV_AT_EPOCH": 3633, "BSTAR": 0, "MEAN_MOTION_DOT": 8.5e-07, "MEAN_MOTION_DDOT": 0}, "tle": {"line1": "1 41310U 16005A   25355.33765795  .00000085  00000+0  00000+0 0  9997", "line2": "2 41310   0.0641  72.0641 0004483 203.7140 304.9349  1.00272858 36338"}}, "geometry": {"type": "Point", "coordinates": [-8.4666266629057, -0.06637495316819059]}}, {"type": "Feature", "properties": {"norad_id": 41382, "name": "EUTELSAT 65 WEST A", "group": "eutelsat", "lat": -0.06833283585441156, "lon": -82.70869067196205, "alt_km": 35776.51780012684, "timestamp": "2025-12-21T16:47:54.400396+00:00", "meta": {"OBJECT_NAME": "EUTELSAT 65 WEST A", "OBJECT_ID": "2016-014A", "EPOCH": "2025-12-21T09:34:36.357024", "MEAN_MOTION": 1.00273703, "ECCENTRICITY": 0.0002145, "INCLINATION": 0.0523, "RA_OF_ASC_NODE": 334.5828, "ARG_OF_PERICENTER": 298.799, "MEAN_ANOMALY": 255.2924, "EPHEMERIS_TYPE": 0, "CLASSIFICATION_TYPE": "U", "NORAD_CAT_ID": 41382, "ELEMENT_SET_NO": 999, "REV_AT_EPOCH": 3575, "BSTAR": 0, "MEAN_MOTION_DOT": -2.54e-06, "MEAN_MOTION_DDOT": 0}, "tle": {"line1": "1 41382U 16014A   25355.39903191 -.00000254  00000+0  00000+0 0  9995", "line2": "2 41382   0.0523 334.5828 0002145 298.7990 255.2924  1.00273703 35751"}}, "geometry": {"type": "Point", "coordinates": [-82.70869067196205, -0.06833283585441156]}}, {"type": "Feature", "properties": {"norad_id": 41589, "name": "EUTELSAT 117 WEST B", "group": "eutelsat", "lat": 0.015154780281490787, "lon": -134.50776118487332, "alt_km": 35786.31898407264, "timestamp": "2025-12-21T16:47:54.400407+00:00", "meta": {"OBJECT_NAME": "EUTELSAT 117 WEST B", "OBJECT_ID": "2016-038B", "EPOCH": "2025-12-21T06:20:43.353024", "MEAN_MOTION": 1.00270341, "ECCENTRICITY": 3.45e-05, "INCLINATION": 0.0057, "RA_OF_ASC_NODE": 161.4405, "ARG_OF_PERICENTER": 148.4194, "MEAN_ANOMALY": 118.4213, "EPHEMERIS_TYPE": 0, "CLASSIFICATION_TYPE": "U", "NORAD_CAT_ID": 41589, "ELEMENT_SET_NO": 999, "REV_AT_EPOCH": 3487, "BSTAR": 0, "MEAN_MOTION_DOT": 1.1e-07, "MEAN_MOTION_DDOT": 0}, "tle": {"line1": "1 41589U 16038B   25355.26439066  .00000011  00000+0  00000+0 0  9991", "line2": "2 41589   0.0057 161.4405 0000345 148.4194 118.4213  1.00270341 34875"}}, "geometry": {"type": "Point", "coordinates": [-134.50776118487332, 0.015154780281490787]}}]}